0 FENGYUN 1C DEB
1 30719U 99025ASD 13282.25008576  .00002925  00000-0  15860-2 0  2997
2 30719 099.0113 288.4069 0020225 053.2644 078.7938 14.13114115341795
0 FENGYUN 1C DEB
1 30719U 99025ASD 13283.49866995  .00003679  00000-0  19662-2 0  3016
2 30719 099.0103 289.6630 0020228 049.5300 310.8102 14.13114137341978
0 FENGYUN 1C DEB
1 30719U 99025ASD 13285.98743295  .00003040  00000-0  16468-2 0  3012
2 30719 099.0106 292.1691 0019973 043.0394 011.2491 14.13129972342320
0 FENGYUN 1C DEB
1 30719U 99025ASD 13287.49376131  .00003340  00000-0  18067-2 0  3022
2 30719 099.0102 293.6855 0019938 038.9500 114.2062 14.13138132342536
0 FENGYUN 1C DEB
1 30719U 99025ASD 13288.25493322  .00004058  00000-0  21893-2 0  3038
2 30719 099.0099 294.4516 0019891 036.8125 026.5136 14.13145561342645
0 FENGYUN 1C DEB
1 30719U 99025ASD 13290.53381865  .00003090  00000-0  16726-2 0  3045
2 30719 099.0096 296.7452 0019786 030.4054 099.9801 14.13161439342960
0 FENGYUN 1C DEB
1 30719U 99025ASD 13292.52213594  .00003352  00000-0  18120-2 0  3051
2 30719 099.0100 298.7467 0019671 024.8212 135.3237 14.13172218343247
0 FENGYUN 1C DEB
1 30719U 99025ASD 13293.98819006  .00003943  00000-0  21270-2 0  3069
2 30719 099.0104 300.2225 0019567 020.6454 033.8225 14.13179074343457
0 FENGYUN 1C DEB
1 30719U 99025ASD 13295.84228245  .00004022  00000-0  21686-2 0  3076
2 30719 099.0114 302.0890 0019515 015.2454 106.6275 14.13192196343712
